#aV2011  3  9  0  0   .00000000      96 DD+AD WGS84 FIT  NGA
## 1626 259200.00000000   900.00000000 55629  .0000000000000
+   32     1  2  3  4  5  6  7  8  9 10 11 12 13 14 15 16 17
+         18 19 20 21 22 23 24 25 26 27 28 29 30 31 32  0  0
+          0  0  0  0  0  0  0  0  0  0  0  0  0  0  0  0  0
+          0  0  0  0  0  0  0  0  0  0  0  0  0  0  0  0  0
+          0  0  0  0  0  0  0  0  0  0  0  0  0  0  0  0  0
++         0  0  0  0  0  0  0  0  0  0  0  0  0  0  0  0  0
++         0  0  0  0  0  0  0  0  0  0  0  0  0  0  0  0  0
++         0  0  0  0  0  0  0  0  0  0  0  0  0  0  0  0  0
++         0  0  0  0  0  0  0  0  0  0  0  0  0  0  0  0  0
++         0  0  0  0  0  0  0  0  0  0  0  0  0  0  0  0  0
%c cc cc ccc ccc cccc cccc cccc cccc ccccc ccccc ccccc ccccc
%c cc cc ccc ccc cccc cccc cccc cccc ccccc ccccc ccccc ccccc
%f  0.0000000  0.000000000  0.00000000000  0.000000000000000
%f  0.0000000  0.000000000  0.00000000000  0.000000000000000
%i    0    0    0    0      0      0      0      0         0
%i    0    0    0    0      0      0      0      0         0
/*      NGA, ST. LOUIS,MO.                                  
/*   EPHEMERIS COMPUTED FROM  3 DAYS OF DATA                
/* CCCCCCCCCCCCCCCCCCCCCCCCCCCCCCCCCCCCCCCCCCCCCCCCCCCCCCCCC
/* CCCCCCCCCCCCCCCCCCCCCCCCCCCCCCCCCCCCCCCCCCCCCCCCCCCCCCCCC
*  2011  3  9  0  0   .00000000                                                 
P  1   7253.026154 -22085.311200  12603.754420   -213.969587                    
V  1   3310.996681  16043.995915  26114.663951      -.028383                    
P  2   2528.825303  17418.321581  20045.112981    324.182962                    
V  2 -23332.058013  -9946.413900  11118.551650       .019409                    
P  3   2976.248115 -19934.136130 -17546.952094    685.809217                    
V  3  17920.359914 -12485.708024  17960.380411       .051335                    
P  4 -11312.190683  11503.714533  20935.070634     55.414108                    
V  4 -24043.296237 -12508.809740  -5711.449756       .102688                    
P  5   1619.756303  26452.372219    191.336240   -126.078875                    
V  5  -3118.031786    -61.802187  31685.907302      -.059029                    
P  6   8531.590955 -20041.568755 -14893.255987     27.221396                    
V  6  17168.993489  -9342.253957  22372.628155     -1.333639                    
P  7 -24083.378763  -4005.522908 -10699.780881      5.180301                    
V  7 -11184.380192  -7813.533865  27889.481000       .008678                    
P  8 -18698.333741   3004.547093 -18831.226425      7.520122                    
V  8 -19978.438519 -12723.467093  17259.710527       .000881                    
P  9  20197.509332  15474.344190  -8178.880528     66.410210                    
V  9  -9488.010416  -2407.202215 -29981.626426       .023421                    
P 10  -8981.785252  20532.184931  13747.712283    -68.290208                    
V 10  -3511.565429 -17857.795937  24372.340490      -.009995                    
P 11 -21576.110463 -12667.105788  -9713.897441   -132.922294                    
V 11  12552.004244  -1542.173918 -26387.503414      -.030394                    
P 12  11109.731230  19057.246800  14950.546582    -20.819848                    
V 12   -717.039575  18889.439071 -23427.663989       .029023                    
P 13 -22992.905043   3208.893146  12804.530383    279.780120                    
V 13  13598.901236  -9337.386654  26418.600156      -.014295                    
P 14  21438.535401 -15221.853841   3359.621592    136.262648                    
V 14   4614.714145   -201.930165 -31965.712579       .024609                    
P 15  10993.163626  11058.990835 -21500.798735   -145.035141                    
V 15 -22346.777904  15771.433058  -3152.090699       .032507                    
P 16   1044.849340 -26237.399642   2752.427180   -156.222137                    
V 16   2710.433899   3396.662086  32007.190310      -.028626                    
P 17 -21531.023659  15211.766201   2115.307786    183.748331                    
V 17  -3741.521938  -1179.438281 -31760.120716       .002888                    
P 18  15321.009289  -4241.987646 -20941.380878    125.443138                    
V 18   1971.688760  27378.838599  -4415.678445       .020441                    
P 19  -6433.859933 -13857.746425 -21711.482982   -118.302504                    
V 19  24288.408681 -13106.604087   1501.917107      -.037673                    
P 20 -14124.907307 -14576.858438  17015.050039     48.684960                    
V 20     -2.379309 -22064.602082 -18675.032977       .000160                    
P 21  24215.666656   3366.687510 -10711.880900   -129.054969                    
V 21  11218.880253   8881.059486  26549.513355      -.026512                    
P 22  11864.807740 -16512.057982 -16873.279596    152.148149                    
V 22   3299.237005  21754.196735 -18883.389200      -.006298                    
P 23 -16261.232273  -6098.104153  20185.394940    321.352407                    
V 23  20935.931127 -14637.477228  12110.952646      -.024650                    
P 24 -21418.014706 -15411.502493  -4073.975459    371.687165                    
V 24   5973.519233     14.691207 -30749.670838       .032369                    
P 25  15227.351619   4265.682586  21328.676348    -70.486777                    
V 25   1552.925633  27065.834532  -6503.870456      -.009505                    
P 26  -2613.043396  17076.559725 -20632.389216   -140.113653                    
V 26 -22160.216941  11501.120838  13098.284332      -.100064                    
P 27  17094.631654  16185.456516 -11918.127612    243.730208                    
V 27 -15432.085183  -4774.118688 -26827.284580       .036667                    
P 28 -12613.918112  12759.911893 -18977.483067     24.113041                    
V 28  -2037.516291 -25216.935265 -15448.264174       .022010                    
P 29  21714.984820   -783.866094  15327.343214    190.961822                    
V 29 -15431.994367  11813.580294  22626.279880       .028079                    
P 30   4030.924433 -24325.905098   9419.729589    327.605896                    
V 30   4034.280883  12196.017599  28572.092696       .029927                    
P 31   8568.644007 -12322.757343  22131.915562     50.671475                    
V 31  24539.599644  12478.624516  -2373.026226       .048342                    
P 32  -8310.169318 -22312.024161  12472.228414   -211.157783                    
V 32   2432.405506 -15190.860372 -25766.650927      -.076770                    
EOF
